{
  "norad_id": 66923,
  "name": "HULIANWANG DIGUI-113",
  "history": [
    {
      "epoch": "2026-03-28T23:13:52.043808Z",
      "apogee_km": 1149.6196060261445,
      "perigee_km": 1148.9427405840006,
      "latitude_deg": 6.738992023403035e-05,
      "longitude_deg": -101.46919724351314,
      "height_km": 1149.4536593718074,
      "semi_major_axis_km": 7527.418173305072,
      "eccentricity": 4.496e-05,
      "inclination_deg": 50.009,
      "raan_deg": 73.3784,
      "arg_perigee_deg": 8.9669,
      "mean_anomaly_deg": 351.1212,
      "mean_motion_rev_day": 13.29332728
    },
    {
      "epoch": "2026-03-29T04:38:38.468256Z",
      "apogee_km": 1149.6221238210474,
      "perigee_km": 1148.940139738308,
      "latitude_deg": -4.805831019798273e-07,
      "longitude_deg": 176.30631127378834,
      "height_km": 1149.4519932406074,
      "semi_major_axis_km": 7527.418131779677,
      "eccentricity": 4.53e-05,
      "inclination_deg": 50.0091,
      "raan_deg": 72.5697,
      "arg_perigee_deg": 9.8835,
      "mean_anomaly_deg": 350.2046,
      "mean_motion_rev_day": 13.29332739
    },
    {
      "epoch": "2026-03-30T04:05:59.628192Z",
      "apogee_km": 1149.631407361493,
      "perigee_km": 1148.9298520384054,
      "latitude_deg": -3.2448702297639096e-05,
      "longitude_deg": 179.99982013169833,
      "height_km": 1149.446103739063,
      "semi_major_axis_km": 7527.417629699949,
      "eccentricity": 4.66e-05,
      "inclination_deg": 50.0093,
      "raan_deg": 69.0647,
      "arg_perigee_deg": 13.343,
      "mean_anomaly_deg": 346.7454,
      "mean_motion_rev_day": 13.29332872
    },
    {
      "epoch": "2026-03-30T05:54:15.104160Z",
      "apogee_km": 1149.632781172727,
      "perigee_km": 1148.9285159775263,
      "latitude_deg": 1.1854710319171622e-05,
      "longitude_deg": 152.59167407009198,
      "height_km": 1149.4453918837437,
      "semi_major_axis_km": 7527.417648575127,
      "eccentricity": 4.678e-05,
      "inclination_deg": 50.0093,
      "raan_deg": 68.7951,
      "arg_perigee_deg": 13.7581,
      "mean_anomaly_deg": 346.3304,
      "mean_motion_rev_day": 13.29332867
    },
    {
      "epoch": "2026-03-30T13:07:16.996800Z",
      "apogee_km": 1149.633108465854,
      "perigee_km": 1148.9280905334836,
      "latitude_deg": -8.110255495925969e-06,
      "longitude_deg": 42.9589721960955,
      "height_km": 1149.4453840653978,
      "semi_major_axis_km": 7527.4175994996685,
      "eccentricity": 4.683e-05,
      "inclination_deg": 50.0094,
      "raan_deg": 67.7167,
      "arg_perigee_deg": 14.0267,
      "mean_anomaly_deg": 346.0618,
      "mean_motion_rev_day": 13.2933288
    },
    {
      "epoch": "2026-03-30T22:08:34.365408Z",
      "apogee_km": 1149.635399977793,
      "perigee_km": 1148.925413967967,
      "latitude_deg": -2.8411981785282815e-05,
      "longitude_deg": -94.0820129939971,
      "height_km": 1149.4447865996658,
      "semi_major_axis_km": 7527.41740697288,
      "eccentricity": 4.716e-05,
      "inclination_deg": 50.0094,
      "raan_deg": 66.3686,
      "arg_perigee_deg": 15.3111,
      "mean_anomaly_deg": 344.7775,
      "mean_motion_rev_day": 13.29332931
    },
    {
      "epoch": "2026-03-31T21:35:55.522752Z",
      "apogee_km": 1149.645963867927,
      "perigee_km": 1148.9142989227557,
      "latitude_deg": 5.354425091670978e-06,
      "longitude_deg": -90.38833770216723,
      "height_km": 1149.440307458869,
      "semi_major_axis_km": 7527.417131395341,
      "eccentricity": 4.86e-05,
      "inclination_deg": 50.0096,
      "raan_deg": 62.8637,
      "arg_perigee_deg": 18.6727,
      "mean_anomaly_deg": 341.4163,
      "mean_motion_rev_day": 13.29333004
    },
    {
      "epoch": "2026-04-01T21:03:16.674912Z",
      "apogee_km": 1149.6599073140997,
      "perigee_km": 1148.8996382200503,
      "latitude_deg": 5.342180649418586e-06,
      "longitude_deg": -86.69456907183329,
      "height_km": 1149.4344523356344,
      "semi_major_axis_km": 7527.416772767075,
      "eccentricity": 5.05e-05,
      "inclination_deg": 50.0098,
      "raan_deg": 59.3589,
      "arg_perigee_deg": 22.1614,
      "mean_anomaly_deg": 337.928,
      "mean_motion_rev_day": 13.29333099
    },
    {
      "epoch": "2026-04-02T20:30:37.808928Z",
      "apogee_km": 1149.662900876343,
      "perigee_km": 1148.895104444071,
      "latitude_deg": 4.3294228449446266e-05,
      "longitude_deg": -83.00079342627853,
      "height_km": 1149.436685025739,
      "semi_major_axis_km": 7527.416002660207,
      "eccentricity": 5.1e-05,
      "inclination_deg": 50.01,
      "raan_deg": 55.854,
      "arg_perigee_deg": 24.6056,
      "mean_anomaly_deg": 335.4841,
      "mean_motion_rev_day": 13.29333303
    },
    {
      "epoch": "2026-04-02T22:18:53.278848Z",
      "apogee_km": 1149.660883344588,
      "perigee_km": 1148.897001174766,
      "latitude_deg": -3.488051373574144e-05,
      "longitude_deg": -110.409016465983,
      "height_km": 1149.438830913812,
      "semi_major_axis_km": 7527.415942259677,
      "eccentricity": 5.074e-05,
      "inclination_deg": 50.01,
      "raan_deg": 55.5844,
      "arg_perigee_deg": 24.7553,
      "mean_anomaly_deg": 335.3343,
      "mean_motion_rev_day": 13.29333319
    },
    {
      "epoch": "2026-04-03T19:57:58.949856Z",
      "apogee_km": 1149.6805627246576,
      "perigee_km": 1148.8766347387127,
      "latitude_deg": -2.8545794056203205e-05,
      "longitude_deg": -79.30703899325388,
      "height_km": 1149.4359250285568,
      "semi_major_axis_km": 7527.415598731684,
      "eccentricity": 5.34e-05,
      "inclination_deg": 50.0102,
      "raan_deg": 52.3492,
      "arg_perigee_deg": 29.6411,
      "mean_anomaly_deg": 330.4491,
      "mean_motion_rev_day": 13.2933341
    },
    {
      "epoch": "2026-04-04T21:13:35.553792Z",
      "apogee_km": 1149.6925499610097,
      "perigee_km": 1148.8645342513782,
      "latitude_deg": -5.165956622293953e-05,
      "longitude_deg": -103.02157376277782,
      "height_km": 1149.4433814007082,
      "semi_major_axis_km": 7527.415542106194,
      "eccentricity": 5.5e-05,
      "inclination_deg": 50.0104,
      "raan_deg": 48.5746,
      "arg_perigee_deg": 34.3474,
      "mean_anomaly_deg": 325.7433,
      "mean_motion_rev_day": 13.29333425
    },
    {
      "epoch": "2026-04-05T11:39:39.327840Z",
      "apogee_km": 1149.700999081173,
      "perigee_km": 1148.855820878939,
      "latitude_deg": 3.39703096431953e-05,
      "longitude_deg": 37.71327252530293,
      "height_km": 1149.446218237376,
      "semi_major_axis_km": 7527.415409980055,
      "eccentricity": 5.614e-05,
      "inclination_deg": 50.0106,
      "raan_deg": 46.4179,
      "arg_perigee_deg": 36.6987,
      "mean_anomaly_deg": 323.3924,
      "mean_motion_rev_day": 13.2933346
    },
    {
      "epoch": "2026-04-05T20:40:56.684352Z",
      "apogee_km": 1149.7029222319716,
      "perigee_km": 1148.8538297775576,
      "latitude_deg": 8.406445787182934e-08,
      "longitude_deg": -99.32767457022338,
      "height_km": 1149.4509372027635,
      "semi_major_axis_km": 7527.415376004764,
      "eccentricity": 5.64e-05,
      "inclination_deg": 50.0106,
      "raan_deg": 45.0698,
      "arg_perigee_deg": 38.1058,
      "mean_anomaly_deg": 321.9854,
      "mean_motion_rev_day": 13.29333469
    },
    {
      "epoch": "2026-04-06T05:42:14.043456Z",
      "apogee_km": 1149.707893639761,
      "perigee_km": 1148.848563917244,
      "latitude_deg": 2.3001303313169132e-05,
      "longitude_deg": 123.63161474381923,
      "height_km": 1149.4531926384816,
      "semi_major_axis_km": 7527.415228778503,
      "eccentricity": 5.708e-05,
      "inclination_deg": 50.0107,
      "raan_deg": 43.7219,
      "arg_perigee_deg": 39.4769,
      "mean_anomaly_deg": 320.6145,
      "mean_motion_rev_day": 13.29333508
    },
    {
      "epoch": "2026-04-07T21:23:54.408480Z",
      "apogee_km": 1149.7255361456328,
      "perigee_km": 1148.82977380169,
      "latitude_deg": -3.351837025682641e-05,
      "longitude_deg": -119.34792159909881,
      "height_km": 1149.468190131004,
      "semi_major_axis_km": 7527.414654973661,
      "eccentricity": 5.95e-05,
      "inclination_deg": 50.011,
      "raan_deg": 37.7908,
      "arg_perigee_deg": 45.1183,
      "mean_anomaly_deg": 314.9737,
      "mean_motion_rev_day": 13.2933366
    },
    {
      "epoch": "2026-04-08T13:38:13.645536Z",
      "apogee_km": 1149.7265255733364,
      "perigee_km": 1148.828505021661,
      "latitude_deg": -1.7145486548001042e-05,
      "longitude_deg": -6.021263173806005,
      "height_km": 1149.4786008791118,
      "semi_major_axis_km": 7527.414515297498,
      "eccentricity": 5.965e-05,
      "inclination_deg": 50.0112,
      "raan_deg": 35.3645,
      "arg_perigee_deg": 47.1274,
      "mean_anomaly_deg": 312.9648,
      "mean_motion_rev_day": 13.29333697
    },
    {
      "epoch": "2026-04-09T20:18:36.642816Z",
      "apogee_km": 1149.7415112919462,
      "perigee_km": 1148.8126283957263,
      "latitude_deg": 5.021932595931004e-06,
      "longitude_deg": -111.95976806932414,
      "height_km": 1149.4983854431491,
      "semi_major_axis_km": 7527.414069843836,
      "eccentricity": 6.17e-05,
      "inclination_deg": 50.0114,
      "raan_deg": 30.7815,
      "arg_perigee_deg": 52.1126,
      "mean_anomaly_deg": 307.9802,
      "mean_motion_rev_day": 13.29333815
    },
    {
      "epoch": "2026-04-10T12:32:55.866048Z",
      "apogee_km": 1149.7499703481162,
      "perigee_km": 1148.803021730314,
      "latitude_deg": 1.8467934797344114e-05,
      "longitude_deg": 1.3669460487640626,
      "height_km": 1149.5075331100545,
      "semi_major_axis_km": 7527.413496039215,
      "eccentricity": 6.29e-05,
      "inclination_deg": 50.0115,
      "raan_deg": 28.3552,
      "arg_perigee_deg": 54.4216,
      "mean_anomaly_deg": 305.6715,
      "mean_motion_rev_day": 13.29333967
    }
  ]
}